STARLINK-34343
1 64157U 25112M   26092.85704629  .00041720  00000+0  31918-2 0  9991
2 64157  97.6201 145.3396 0019372 161.3174 198.8766 15.01609896 46949
